CCSDS_OMM_VERS = 2.0
CREATION_DATE  = 
ORIGINATOR     = 

OBJECT_NAME    = SILVERSAT
OBJECT_ID      = 1998-067XV
CENTER_NAME    = EARTH
REF_FRAME      = TEME
TIME_SYSTEM    = UTC
MEAN_ELEMENT_THEORY = SGP/SGP4

EPOCH          = 2026-02-09T17:15:28.615680
MEAN_MOTION    = 15.63320191
ECCENTRICITY   = .0002403
INCLINATION    = 51.6267
RA_OF_ASC_NODE = 207.1313
ARG_OF_PERICENTER = 252.0284
MEAN_ANOMALY   = 108.0449

EPHEMERIS_TYPE = 0
CLASSIFICATION_TYPE = U
NORAD_CAT_ID   = 66909
ELEMENT_SET_NO = 999
REV_AT_EPOCH   = 1080
BSTAR          = .13285E-2
MEAN_MOTION_DOT = .125958E-2
MEAN_MOTION_DDOT = 0

CCSDS_OMM_VERS = 2.0
CREATION_DATE  = 
ORIGINATOR     = 

OBJECT_NAME    = ISS OBJECT XW
OBJECT_ID      = 1998-067XW
CENTER_NAME    = EARTH
REF_FRAME      = TEME
TIME_SYSTEM    = UTC
MEAN_ELEMENT_THEORY = SGP/SGP4

EPOCH          = 2026-02-09T16:06:53.258400
MEAN_MOTION    = 15.61822223
ECCENTRICITY   = .000119
INCLINATION    = 51.6257
RA_OF_ASC_NODE = 207.5584
ARG_OF_PERICENTER = 285.1610
MEAN_ANOMALY   = 74.9252

EPHEMERIS_TYPE = 0
CLASSIFICATION_TYPE = U
NORAD_CAT_ID   = 66910
ELEMENT_SET_NO = 999
REV_AT_EPOCH   = 1079
BSTAR          = .11031E-2
MEAN_MOTION_DOT = .98201E-3
MEAN_MOTION_DDOT = 0

CCSDS_OMM_VERS = 2.0
CREATION_DATE  = 
ORIGINATOR     = 

OBJECT_NAME    = ISS OBJECT XX
OBJECT_ID      = 1998-067XX
CENTER_NAME    = EARTH
REF_FRAME      = TEME
TIME_SYSTEM    = UTC
MEAN_ELEMENT_THEORY = SGP/SGP4

EPOCH          = 2026-02-09T18:03:21.044160
MEAN_MOTION    = 15.64618808
ECCENTRICITY   = .0002801
INCLINATION    = 51.6234
RA_OF_ASC_NODE = 206.6102
ARG_OF_PERICENTER = 282.1139
MEAN_ANOMALY   = 77.9542

EPHEMERIS_TYPE = 0
CLASSIFICATION_TYPE = U
NORAD_CAT_ID   = 66911
ELEMENT_SET_NO = 999
REV_AT_EPOCH   = 1080
BSTAR          = .14448E-2
MEAN_MOTION_DOT = .144596E-2
MEAN_MOTION_DDOT = 0

CCSDS_OMM_VERS = 2.0
CREATION_DATE  = 
ORIGINATOR     = 

OBJECT_NAME    = ISS OBJECT XY
OBJECT_ID      = 1998-067XY
CENTER_NAME    = EARTH
REF_FRAME      = TEME
TIME_SYSTEM    = UTC
MEAN_ELEMENT_THEORY = SGP/SGP4

EPOCH          = 2026-02-09T16:07:25.438080
MEAN_MOTION    = 15.58897163
ECCENTRICITY   = .0000662
INCLINATION    = 51.6282
RA_OF_ASC_NODE = 208.3184
ARG_OF_PERICENTER = 174.8673
MEAN_ANOMALY   = 185.2327

EPHEMERIS_TYPE = 0
CLASSIFICATION_TYPE = U
NORAD_CAT_ID   = 66912
ELEMENT_SET_NO = 999
REV_AT_EPOCH   = 1077
BSTAR          = .90522E-3
MEAN_MOTION_DOT = .71681E-3
MEAN_MOTION_DDOT = 0

CCSDS_OMM_VERS = 2.0
CREATION_DATE  = 
ORIGINATOR     = 

OBJECT_NAME    = ISS OBJECT XZ
OBJECT_ID      = 1998-067XZ
CENTER_NAME    = EARTH
REF_FRAME      = TEME
TIME_SYSTEM    = UTC
MEAN_ELEMENT_THEORY = SGP/SGP4

EPOCH          = 2026-02-09T19:44:26.544480
MEAN_MOTION    = 15.49564576
ECCENTRICITY   = .0010961
INCLINATION    = 51.6304
RA_OF_ASC_NODE = 210.0715
ARG_OF_PERICENTER = 96.6219
MEAN_ANOMALY   = 263.6017

EPHEMERIS_TYPE = 0
CLASSIFICATION_TYPE = U
NORAD_CAT_ID   = 67683
ELEMENT_SET_NO = 999
REV_AT_EPOCH   = 46
BSTAR          = .65404E-3
MEAN_MOTION_DOT = .36549E-3
MEAN_MOTION_DDOT = 0

CCSDS_OMM_VERS = 2.0
CREATION_DATE  = 
ORIGINATOR     = 

OBJECT_NAME    = GXIBA-1
OBJECT_ID      = 1998-067YA
CENTER_NAME    = EARTH
REF_FRAME      = TEME
TIME_SYSTEM    = UTC
MEAN_ELEMENT_THEORY = SGP/SGP4

EPOCH          = 2026-02-09T19:42:30.306240
MEAN_MOTION    = 15.50093435
ECCENTRICITY   = .0012841
INCLINATION    = 51.6303
RA_OF_ASC_NODE = 210.0634
ARG_OF_PERICENTER = 92.1087
MEAN_ANOMALY   = 268.1372

EPHEMERIS_TYPE = 0
CLASSIFICATION_TYPE = U
NORAD_CAT_ID   = 67684
ELEMENT_SET_NO = 999
REV_AT_EPOCH   = 46
BSTAR          = .11869E-2
MEAN_MOTION_DOT = .68298E-3
MEAN_MOTION_DDOT = 0

CCSDS_OMM_VERS = 2.0
CREATION_DATE  = 
ORIGINATOR     = 

OBJECT_NAME    = CORAL
OBJECT_ID      = 1998-067YB
CENTER_NAME    = EARTH
REF_FRAME      = TEME
TIME_SYSTEM    = UTC
MEAN_ELEMENT_THEORY = SGP/SGP4

EPOCH          = 2026-02-09T19:44:00.421440
MEAN_MOTION    = 15.49672269
ECCENTRICITY   = .0012891
INCLINATION    = 51.6305
RA_OF_ASC_NODE = 210.0697
ARG_OF_PERICENTER = 92.2165
MEAN_ANOMALY   = 268.0300

EPHEMERIS_TYPE = 0
CLASSIFICATION_TYPE = U
NORAD_CAT_ID   = 67685
ELEMENT_SET_NO = 999
REV_AT_EPOCH   = 46
BSTAR          = .78536E-3
MEAN_MOTION_DOT = .44232E-3
MEAN_MOTION_DDOT = 0

CCSDS_OMM_VERS = 2.0
CREATION_DATE  = 
ORIGINATOR     = 

OBJECT_NAME    = ISS OBJECT YC
OBJECT_ID      = 1998-067YC
CENTER_NAME    = EARTH
REF_FRAME      = TEME
TIME_SYSTEM    = UTC
MEAN_ELEMENT_THEORY = SGP/SGP4

EPOCH          = 2026-02-09T18:10:52.008960
MEAN_MOTION    = 15.49764250
ECCENTRICITY   = .0007757
INCLINATION    = 51.6308
RA_OF_ASC_NODE = 210.3882
ARG_OF_PERICENTER = 69.4185
MEAN_ANOMALY   = 290.7635

EPHEMERIS_TYPE = 0
CLASSIFICATION_TYPE = U
NORAD_CAT_ID   = 67686
ELEMENT_SET_NO = 999
REV_AT_EPOCH   = 45
BSTAR          = .90713E-3
MEAN_MOTION_DOT = .5127E-3
MEAN_MOTION_DDOT = 0

CCSDS_OMM_VERS = 2.0
CREATION_DATE  = 
ORIGINATOR     = 

OBJECT_NAME    = LEOPARD
OBJECT_ID      = 1998-067YD
CENTER_NAME    = EARTH
REF_FRAME      = TEME
TIME_SYSTEM    = UTC
MEAN_ELEMENT_THEORY = SGP/SGP4

EPOCH          = 2026-02-09T19:44:11.122080
MEAN_MOTION    = 15.49627911
ECCENTRICITY   = .0007909
INCLINATION    = 51.6308
RA_OF_ASC_NODE = 210.0706
ARG_OF_PERICENTER = 70.9598
MEAN_ANOMALY   = 289.2247

EPHEMERIS_TYPE = 0
CLASSIFICATION_TYPE = U
NORAD_CAT_ID   = 67687
ELEMENT_SET_NO = 999
REV_AT_EPOCH   = 38
BSTAR          = .71424E-3
MEAN_MOTION_DOT = .4002E-3
MEAN_MOTION_DDOT = 0

CCSDS_OMM_VERS = 2.0
CREATION_DATE  = 
ORIGINATOR     = 

OBJECT_NAME    = ISS OBJECT YE
OBJECT_ID      = 1998-067YE
CENTER_NAME    = EARTH
REF_FRAME      = TEME
TIME_SYSTEM    = UTC
MEAN_ELEMENT_THEORY = SGP/SGP4

EPOCH          = 2026-02-09T15:05:12.748992
MEAN_MOTION    = 15.49715086
ECCENTRICITY   = .0007781
INCLINATION    = 51.6309
RA_OF_ASC_NODE = 211.0272
ARG_OF_PERICENTER = 68.9657
MEAN_ANOMALY   = 291.2163

EPHEMERIS_TYPE = 0
CLASSIFICATION_TYPE = U
NORAD_CAT_ID   = 67688
ELEMENT_SET_NO = 999
REV_AT_EPOCH   = 35
BSTAR          = .80611E-3
MEAN_MOTION_DOT = .45397E-3
MEAN_MOTION_DDOT = 0

