SILVERSAT               
1 66909U 98067XV  26040.71908120  .00125958  00000+0  13285-2 0  9990
2 66909  51.6267 207.1313 0002403 252.0284 108.0449 15.63320191 10804
ISS OBJECT XW           
1 66910U 98067XW  26040.67144975  .00098201  00000+0  11031-2 0  9994
2 66910  51.6257 207.5584 0001190 285.1610  74.9252 15.61822223 10793
ISS OBJECT XX           
1 66911U 98067XX  26040.75232690  .00144596  00000+0  14448-2 0  9990
2 66911  51.6234 206.6102 0002801 282.1139  77.9542 15.64618808 10800
ISS OBJECT XY           
1 66912U 98067XY  26040.67182220  .00071681  00000+0  90522-3 0  9997
2 66912  51.6282 208.3184 0000662 174.8673 185.2327 15.58897163 10772
ISS OBJECT XZ           
1 67683U 98067XZ  26040.82252945  .00036549  00000+0  65404-3 0  9997
2 67683  51.6304 210.0715 0010961  96.6219 263.6017 15.49564576   464
GXIBA-1                 
1 67684U 98067YA  26040.82118410  .00068298  00000+0  11869-2 0  9997
2 67684  51.6303 210.0634 0012841  92.1087 268.1372 15.50093435   464
CORAL                   
1 67685U 98067YB  26040.82222710  .00044232  00000+0  78536-3 0  9994
2 67685  51.6305 210.0697 0012891  92.2165 268.0300 15.49672269   465
ISS OBJECT YC           
1 67686U 98067YC  26040.75754640  .00051270  00000+0  90713-3 0  9990
2 67686  51.6308 210.3882 0007757  69.4185 290.7635 15.49764250   455
LEOPARD                 
1 67687U 98067YD  26040.82235095  .00040020  00000+0  71424-3 0  9996
2 67687  51.6308 210.0706 0007909  70.9598 289.2247 15.49627911   388
ISS OBJECT YE           
1 67688U 98067YE  26040.62861978  .00045397  00000+0  80611-3 0  9990
2 67688  51.6309 211.0272 0007781  68.9657 291.2163 15.49715086   358
